{
    "links": {
        "self": "http://www.neowsapp.com/rest/v1/neo/3838120?api_key=iIulBulltgU6a56xZRHN4H3l9WmuAYTsLGpBGhQ2"
    },
    "id": "3838120",
    "neo_reference_id": "3838120",
    "name": "(2019 CK1)",
    "designation": "2019 CK1",
    "nasa_jpl_url": "http://ssd.jpl.nasa.gov/sbdb.cgi?sstr=3838120",
    "absolute_magnitude_h": 25.1,
    "estimated_diameter": {
        "kilometers": {
            "estimated_diameter_min": 0.0253837029,
            "estimated_diameter_max": 0.0567596853
        },
        "meters": {
            "estimated_diameter_min": 25.3837029364,
            "estimated_diameter_max": 56.7596852866
        },
        "miles": {
            "estimated_diameter_min": 0.0157726969,
            "estimated_diameter_max": 0.0352688224
        },
        "feet": {
            "estimated_diameter_min": 83.279867942,
            "estimated_diameter_max": 186.2194458756
        }
    },
    "is_potentially_hazardous_asteroid": false,
    "close_approach_data": [
        {
            "close_approach_date": "2019-02-24",
            "close_approach_date_full": "2019-Feb-24 13:16",
            "epoch_date_close_approach": 1551014160000,
            "relative_velocity": {
                "kilometers_per_second": "10.2242007501",
                "kilometers_per_hour": "36807.1227004133",
                "miles_per_hour": "22870.5146579318"
            },
            "miss_distance": {
                "astronomical": "0.0421311482",
                "lunar": "16.3890166498",
                "kilometers": "6302730.031374334",
                "miles": "3916334.8386364492"
            },
            "orbiting_body": "Earth"
        }
    ],
    "orbital_data": {
        "orbit_id": "2",
        "orbit_determination_date": "2019-02-14 07:12:50",
        "first_observation_date": "2019-02-04",
        "last_observation_date": "2019-02-12",
        "data_arc_in_days": 8,
        "observations_used": 23,
        "orbit_uncertainty": "8",
        "minimum_orbit_intersection": ".016616",
        "jupiter_tisserand_invariant": "4.143",
        "epoch_osculation": "2458519.5",
        "eccentricity": ".4441414983601039",
        "semi_major_axis": "1.661862746124154",
        "inclination": "2.185346703793137",
        "ascending_node_longitude": "315.1101145268862",
        "orbital_period": "782.5122687741419",
        "perihelion_distance": ".923760535991735",
        "perihelion_argument": "245.2143027763076",
        "aphelion_distance": "2.399964956256572",
        "perihelion_time": "2458573.135029180672",
        "mean_anomaly": "335.3248462988444",
        "mean_motion": ".4600566845603126",
        "equinox": "J2000",
        "orbit_class": {
            "orbit_class_type": "APO",
            "orbit_class_description": "Near-Earth asteroid orbits which cross the Earth’s orbit similar to that of 1862 Apollo",
            "orbit_class_range": "a (semi-major axis) > 1.0 AU; q (perihelion) < 1.017 AU"
        }
    },
    "is_sentry_object": false
}